OSCAR 7 (AO-7)          
1 07530U 74089B   26176.54232721 -.00000032  00000+0  90872-4 0  9996
2 07530 101.9899 189.8760 0012642 114.6593  39.6394 12.53698202361560
PHASE 3B (AO-10)        
1 14129U 83058B   26174.68191131 -.00000085  00000+0  00000+0 0  9993
2 14129  25.9176 218.4895 6008564 117.4551 314.9460  2.05872578295624
UOSAT 2 (UO-11)         
1 14781U 84021B   26176.47711983  .00001189  00000+0  12649-3 0  9991
2 14781  97.8060 141.9593 0008364 146.7542 213.4203 14.90802492258363
LUSAT (LO-19)           
1 20442U 90005G   26176.55420485  .00000111  00000+0  56201-4 0  9991
2 20442  98.8847 198.5903 0011611 176.2133 183.9140 14.34125488903598
EYESAT A (AO-27)        
1 22825U 93061C   26176.46065576  .00000080  00000+0  47438-4 0  9996
2 22825  98.6877 243.8711 0009514  78.4721 281.7529 14.30944241708180
ITAMSAT (IO-26)         
1 22826U 93061D   26176.43759968  .00000084  00000+0  48602-4 0  9997
2 22826  98.6825 243.7664 0009911  63.5837 296.6361 14.31371378708493
RADIO ROSTO (RS15)      
1 23439U 94085A   26176.54144468 -.00000047  00000+0 -14112-3 0  9999
2 23439  64.8179 289.7053 0156221   2.3308 357.8311 11.27583386296846
JAS-2 (FO-29)           
1 24278U 96046B   26176.51778384 -.00000016  00000+0  17133-4 0  9999
2 24278  98.5234  24.2484 0350907  74.8783 289.0890 13.53274737474295
TECHSAT 1B (GO-32)      
1 25397U 98043D   26176.56378874  .00000060  00000+0  46075-4 0  9991
2 25397  99.0071 169.5339 0001468 146.9884 213.1386 14.24429889452522
ISS (ZARYA)             
1 25544U 98067A   26176.51006974  .00009838  00000+0  18376-3 0  9999
2 25544  51.6326 258.8948 0004369 230.1925 129.8680 15.49422389573043
PCSAT (NO-44)           
1 26931U 01043C   26176.54075370  .00000092  00000+0  65276-4 0  9992
2 26931  67.0493 222.6659 0006044 265.0892  94.9520 14.31958602291640
SAUDISAT 1C (SO-50)     
1 27607U 02058C   26176.51686208  .00000938  00000+0  12783-3 0  9998
2 27607  64.5519 103.2137 0075072 260.9225  98.3381 14.83063362265694
CUTE-1 (CO-55)          
1 27844U 03031E   26176.53717468  .00000284  00000+0  14177-3 0  9991
2 27844  98.6736 184.9911 0010043 154.4508 205.7169 14.24340467192865
CUBESAT XI-IV (CO-57)   
1 27848U 03031J   26176.52982313  .00000243  00000+0  12557-3 0  9992
2 27848  98.6767 184.6898 0009568 172.4685 187.6639 14.23624963192562
MOZHAETS 4 (RS22)       
1 27939U 03042A   26176.63774304  .00001038  00000+0  16811-3 0  9996
2 27939  98.3474   1.2354 0010028 239.2728 208.9572 14.73480755216798
CUBESAT XI-V            
1 28895U 05043F   26176.35228672  .00001375  00000+0  22378-3 0  9991
2 28895  98.2992 332.1457 0014207 174.6504 185.4857 14.72651786102951
CUTE-1.7+APD II (CO-65) 
1 32785U 08021C   26176.53492022  .00005592  00000+0  35252-3 0  9995
2 32785  97.8275 158.1272 0008946  13.9329 346.2145 15.09526758986450
SEEDS II (CO-66)        
1 32791U 08021J   26176.55652961  .00022634  00000+0  71096-3 0  9996
2 32791  97.7517 174.8551 0000372 231.0753 129.0455 15.33017433988577
YUBILEINY (RS30)        
1 32953U 08025A   26176.54865822  .00000038  00000+0  20337-3 0  9997
2 32953  82.5047 350.2382 0018613 294.7274  65.1868 12.43179831820730
KKS-1 (KISEKI)          
1 33499U 09002H   26176.48742436  .00001259  00000+0  16116-3 0  9993
2 33499  98.1187  99.0612 0006362 263.0546  96.9943 14.83143295937429
SWISSCUBE               
1 35932U 09051B   26176.24188242  .00000935  00000+0  19415-3 0  9999
2 35932  98.4030  84.2704 0006545 176.2173 183.9079 14.62495581890335
BEESAT-1                
1 35933U 09051C   26176.25551236  .00000777  00000+0  16579-3 0  9990
2 35933  98.3958  83.9028 0004745 188.0709 172.0416 14.61732314890369
ITUPSAT1                
1 35935U 09051E   26175.29429429  .00000610  00000+0  13593-3 0  9992
2 35935  98.4043  82.1112 0006604 208.5040 151.5799 14.60449650889770
XIWANG-1 (HOPE-1)       
1 36122U 09072B   26176.60378428  .00000320  00000+0  95395-3 0  9990
2 36122 100.4023 130.3013 0007037 210.7282 149.3420 13.16441078794116
O/OREOS (USA 219)       
1 37224U 10062C   26176.09849408  .00002094  00000+0  20305-3 0  9998
2 37224  71.9701  62.4189 0012841  46.2089 314.0141 14.93774803117829
JUGNU                   
1 37839U 11058B   26176.56637229  .00000404  00000+0  71365-4 0  9990
2 37839  19.9600 257.5233 0018497 168.3639 315.1616 14.13778751760212
SRMSAT                  
1 37841U 11058D   26176.55515866  .00000372  00000+0  58142-4 0  9996
2 37841  19.9735   8.8199 0011709 296.2835  90.0618 14.11577173759009
STRAND-1                
1 39090U 13009E   26176.48023421  .00000278  00000+0  10767-3 0  9990
2 39090  98.3924 356.5105 0008182 198.4624 161.6268 14.37167817698251
ZACUBE-1 (TSHEPISOSAT)  
1 39417U 13066B   26176.47250602  .00003519  00000+0  27395-3 0  9994
2 39417  97.8049 138.8520 0041939 219.3895 140.4277 15.01229749681979
GOMX-1                  
1 39430U 13066Q   26176.49325204  .00001722  00000+0  26270-3 0  9997
2 39430  97.6486  16.4318 0129896  51.1867 310.0854 14.69485800671131
